1 27424U 02022A   11008.56784508  .00000218  00000-0  58444-4 0  8414
2 27424 098.2118 311.6665 0001276 103.5298 256.6027 14.57100572461823